[{"OBJECT_NAME":"SPAWAR-CAL-O","OBJECT_ID":"2018-099J","EPOCH":"2026-03-09T17:45:15.080832","MEAN_MOTION":15.31356755,"ECCENTRICITY":0.00072392,"INCLINATION":97.4452,"RA_OF_ASC_NODE":132.0993,"ARG_OF_PERICENTER":285.067,"MEAN_ANOMALY":74.977,"EPHEMERIS_TYPE":0,"CLASSIFICATION_TYPE":"U","NORAD_CAT_ID":43766,"ELEMENT_SET_NO":999,"REV_AT_EPOCH":39828,"BSTAR":0.00069663212,"MEAN_MOTION_DOT":0.00021069,"MEAN_MOTION_DDOT":0},{"OBJECT_NAME":"STARLINK-32287","OBJECT_ID":"2024-138D","EPOCH":"2026-03-09T21:18:41.226624","MEAN_MOTION":15.30196787,"ECCENTRICITY":9.391e-5,"INCLINATION":53.1605,"RA_OF_ASC_NODE":308.9931,"ARG_OF_PERICENTER":89.9145,"MEAN_ANOMALY":270.1963,"EPHEMERIS_TYPE":0,"CLASSIFICATION_TYPE":"U","NORAD_CAT_ID":60358,"ELEMENT_SET_NO":999,"REV_AT_EPOCH":9065,"BSTAR":0.00022593898,"MEAN_MOTION_DOT":6.338e-5,"MEAN_MOTION_DDOT":0}]
